STARLINK-11562 [DTC]    
1 62918U 25027M   25244.58335648 -.00052325  00000+0 -40652-3 0  9999
2 62918  43.0001  47.3522 0001979 272.1317  51.9990 15.70857287  5994
STARLINK-11457 [DTC]    
1 62919U 25027N   25244.45191688  .00400016  00000+0  29443-2 0  9996
2 62919  42.9992  47.9935 0002399 257.4462 102.6137 15.71074100 33398
STARLINK-32921          
1 62920U 25027P   25244.06769182  .00045896  00000+0  16657-2 0  9999
2 62920  43.0002 119.6206 0001742 267.3690  92.6962 15.27605156 32548
STARLINK-32917          
1 62921U 25027Q   25244.01644089  .00040415  00000+0  14699-2 0  9999
2 62921  43.0002 120.0928 0001602 285.7817  74.2858 15.27585583 32536
STARLINK-32916          
1 62922U 25027R   25243.94077826  .00041039  00000+0  14913-2 0  9992
2 62922  43.0004 120.3804 0001257 276.0298  84.0410 15.27607462 32520
STARLINK-32905          
1 62923U 25027S   25244.35493879  .00039714  00000+0  14466-2 0  9999
2 62923  43.0009 118.3352 0001345 272.3790  87.6907 15.27542195 32582
STARLINK-32871          
1 62924U 25027T   25244.33951983  .00016021  00000+0  59027-3 0  9992
2 62924  43.0021 118.2134 0001542 277.7048  82.3629 15.27588757 32585
STARLINK-32920          
1 62925U 25027U   25244.33566556  .00024828  00000+0  90783-3 0  9999
2 62925  42.9999 118.1816 0001372 291.4082  68.6623 15.27611542 32586
STARLINK-32922          
1 62926U 25027V   25244.35108714  .00040007  00000+0  14555-2 0  9999
2 62926  43.0017 118.3008 0000445 267.5462  92.5339 15.27580201 32588
STARLINK-32891          
1 62927U 25027W   25244.03059872  .00042154  00000+0  15335-2 0  9997
2 62927  43.0002 120.2008 0001684 265.1285  94.9374 15.27561547 32653
STARLINK-32728          
1 62948U 25029A   25244.55751476  .00051567  00000+0  17395-2 0  9994
2 62948  53.1592  28.6167 0001089 102.2018 257.9105 15.30229839 32431
STARLINK-32857          
1 62949U 25029B   25244.54168949  .00056507  00000+0  19036-2 0  9994
2 62949  53.1613  28.5261 0001185 111.6013 248.5114 15.30233205 32434
STARLINK-32850          
1 62950U 25029C   25244.57915339  .00033025  00000+0  11218-2 0  9996
2 62950  53.1604  30.8772 0000606 107.0080 253.0987 15.30212404 32379
STARLINK-32875          
1 62951U 25029D   25244.56807097  .00051156  00000+0  17280-2 0  9997
2 62951  53.1597  28.6832 0001312  76.8769 283.2378 15.30189156 32405
STARLINK-32865          
1 62952U 25029E   25244.57281263  .00061092  00000+0  20559-2 0  9993
2 62952  53.1598  30.8381 0001230  82.7487 277.3653 15.30231843 32370
STARLINK-32884          
1 62953U 25029F   25244.56491809  .00066552  00000+0  22357-2 0  9996
2 62953  53.1584  28.6609 0001358  26.5741 333.5329 15.30249501 32403
