[{"OBJECT_NAME":"STARLINK-11562 [DTC]","OBJECT_ID":"2025-027M","EPOCH":"2025-09-01T14:00:01.999872","MEAN_MOTION":15.70857287,"ECCENTRICITY":0.00019797,"INCLINATION":43.0001,"RA_OF_ASC_NODE":47.3522,"ARG_OF_PERICENTER":272.1317,"MEAN_ANOMALY":51.999,"EPHEMERIS_TYPE":0,"CLASSIFICATION_TYPE":"U","NORAD_CAT_ID":62918,"ELEMENT_SET_NO":999,"REV_AT_EPOCH":599,"BSTAR":-0.00040651878,"MEAN_MOTION_DOT":-0.00052325,"MEAN_MOTION_DDOT":0},{"OBJECT_NAME":"STARLINK-11457 [DTC]","OBJECT_ID":"2025-027N","EPOCH":"2025-09-01T10:50:45.618432","MEAN_MOTION":15.710741,"ECCENTRICITY":0.00023991,"INCLINATION":42.9992,"RA_OF_ASC_NODE":47.9935,"ARG_OF_PERICENTER":257.4462,"MEAN_ANOMALY":102.6137,"EPHEMERIS_TYPE":0,"CLASSIFICATION_TYPE":"U","NORAD_CAT_ID":62919,"ELEMENT_SET_NO":999,"REV_AT_EPOCH":3339,"BSTAR":0.0029443156,"MEAN_MOTION_DOT":0.00400016,"MEAN_MOTION_DDOT":0},{"OBJECT_NAME":"STARLINK-32921","OBJECT_ID":"2025-027P","EPOCH":"2025-09-01T01:37:28.573248","MEAN_MOTION":15.27605156,"ECCENTRICITY":0.00017422,"INCLINATION":43.0002,"RA_OF_ASC_NODE":119.6206,"ARG_OF_PERICENTER":267.369,"MEAN_ANOMALY":92.6962,"EPHEMERIS_TYPE":0,"CLASSIFICATION_TYPE":"U","NORAD_CAT_ID":62920,"ELEMENT_SET_NO":999,"REV_AT_EPOCH":3254,"BSTAR":0.0016656949,"MEAN_MOTION_DOT":0.00045896,"MEAN_MOTION_DDOT":0},{"OBJECT_NAME":"STARLINK-32917","OBJECT_ID":"2025-027Q","EPOCH":"2025-09-01T00:23:40.492896","MEAN_MOTION":15.27585583,"ECCENTRICITY":0.0001602,"INCLINATION":43.0002,"RA_OF_ASC_NODE":120.0928,"ARG_OF_PERICENTER":285.7817,"MEAN_ANOMALY":74.2858,"EPHEMERIS_TYPE":0,"CLASSIFICATION_TYPE":"U","NORAD_CAT_ID":62921,"ELEMENT_SET_NO":999,"REV_AT_EPOCH":3253,"BSTAR":0.0014698722,"MEAN_MOTION_DOT":0.00040415,"MEAN_MOTION_DDOT":0},{"OBJECT_NAME":"STARLINK-32916","OBJECT_ID":"2025-027R","EPOCH":"2025-08-31T22:34:43.241664","MEAN_MOTION":15.27607462,"ECCENTRICITY":0.00012578,"INCLINATION":43.0004,"RA_OF_ASC_NODE":120.3804,"ARG_OF_PERICENTER":276.0298,"MEAN_ANOMALY":84.041,"EPHEMERIS_TYPE":0,"CLASSIFICATION_TYPE":"U","NORAD_CAT_ID":62922,"ELEMENT_SET_NO":999,"REV_AT_EPOCH":3252,"BSTAR":0.0014913149,"MEAN_MOTION_DOT":0.00041039,"MEAN_MOTION_DDOT":0},{"OBJECT_NAME":"STARLINK-32905","OBJECT_ID":"2025-027S","EPOCH":"2025-09-01T08:31:06.711456","MEAN_MOTION":15.27542195,"ECCENTRICITY":0.00013459,"INCLINATION":43.0009,"RA_OF_ASC_NODE":118.3352,"ARG_OF_PERICENTER":272.379,"MEAN_ANOMALY":87.6907,"EPHEMERIS_TYPE":0,"CLASSIFICATION_TYPE":"U","NORAD_CAT_ID":62923,"ELEMENT_SET_NO":999,"REV_AT_EPOCH":3258,"BSTAR":0.0014465904,"MEAN_MOTION_DOT":0.00039714,"MEAN_MOTION_DDOT":0},{"OBJECT_NAME":"STARLINK-32871","OBJECT_ID":"2025-027T","EPOCH":"2025-09-01T08:08:54.513312","MEAN_MOTION":15.27588757,"ECCENTRICITY":0.0001542,"INCLINATION":43.0021,"RA_OF_ASC_NODE":118.2134,"ARG_OF_PERICENTER":277.7048,"MEAN_ANOMALY":82.3629,"EPHEMERIS_TYPE":0,"CLASSIFICATION_TYPE":"U","NORAD_CAT_ID":62924,"ELEMENT_SET_NO":999,"REV_AT_EPOCH":3258,"BSTAR":0.00059027309,"MEAN_MOTION_DOT":0.00016021,"MEAN_MOTION_DDOT":0},{"OBJECT_NAME":"STARLINK-32920","OBJECT_ID":"2025-027U","EPOCH":"2025-09-01T08:03:21.504384","MEAN_MOTION":15.27611542,"ECCENTRICITY":0.0001372,"INCLINATION":42.9999,"RA_OF_ASC_NODE":118.1816,"ARG_OF_PERICENTER":291.4082,"MEAN_ANOMALY":68.6623,"EPHEMERIS_TYPE":0,"CLASSIFICATION_TYPE":"U","NORAD_CAT_ID":62925,"ELEMENT_SET_NO":999,"REV_AT_EPOCH":3258,"BSTAR":0.00090783213,"MEAN_MOTION_DOT":0.00024828,"MEAN_MOTION_DDOT":0},{"OBJECT_NAME":"STARLINK-32922","OBJECT_ID":"2025-027V","EPOCH":"2025-09-01T08:25:33.928896","MEAN_MOTION":15.27580201,"ECCENTRICITY":4.456e-5,"INCLINATION":43.0017,"RA_OF_ASC_NODE":118.3008,"ARG_OF_PERICENTER":267.5462,"MEAN_ANOMALY":92.5339,"EPHEMERIS_TYPE":0,"CLASSIFICATION_TYPE":"U","NORAD_CAT_ID":62926,"ELEMENT_SET_NO":999,"REV_AT_EPOCH":3258,"BSTAR":0.001455466,"MEAN_MOTION_DOT":0.00040007,"MEAN_MOTION_DDOT":0},{"OBJECT_NAME":"STARLINK-32891","OBJECT_ID":"2025-027W","EPOCH":"2025-09-01T00:44:03.729408","MEAN_MOTION":15.27561547,"ECCENTRICITY":0.00016841,"INCLINATION":43.0002,"RA_OF_ASC_NODE":120.2008,"ARG_OF_PERICENTER":265.1285,"MEAN_ANOMALY":94.9374,"EPHEMERIS_TYPE":0,"CLASSIFICATION_TYPE":"U","NORAD_CAT_ID":62927,"ELEMENT_SET_NO":999,"REV_AT_EPOCH":3265,"BSTAR":0.001533463,"MEAN_MOTION_DOT":0.00042154,"MEAN_MOTION_DDOT":0},{"OBJECT_NAME":"STARLINK-32728","OBJECT_ID":"2025-029A","EPOCH":"2025-09-01T13:22:49.275264","MEAN_MOTION":15.30229839,"ECCENTRICITY":0.00010892,"INCLINATION":53.1592,"RA_OF_ASC_NODE":28.6167,"ARG_OF_PERICENTER":102.2018,"MEAN_ANOMALY":257.9105,"EPHEMERIS_TYPE":0,"CLASSIFICATION_TYPE":"U","NORAD_CAT_ID":62948,"ELEMENT_SET_NO":999,"REV_AT_EPOCH":3243,"BSTAR":0.0017395337,"MEAN_MOTION_DOT":0.00051567,"MEAN_MOTION_DDOT":0},{"OBJECT_NAME":"STARLINK-32857","OBJECT_ID":"2025-029B","EPOCH":"2025-09-01T13:00:01.971936","MEAN_MOTION":15.30233205,"ECCENTRICITY":0.00011858,"INCLINATION":53.1613,"RA_OF_ASC_NODE":28.5261,"ARG_OF_PERICENTER":111.6013,"MEAN_ANOMALY":248.5114,"EPHEMERIS_TYPE":0,"CLASSIFICATION_TYPE":"U","NORAD_CAT_ID":62949,"ELEMENT_SET_NO":999,"REV_AT_EPOCH":3243,"BSTAR":0.0019035726,"MEAN_MOTION_DOT":0.00056507,"MEAN_MOTION_DDOT":0},{"OBJECT_NAME":"STARLINK-32850","OBJECT_ID":"2025-029C","EPOCH":"2025-09-01T13:53:58.852896","MEAN_MOTION":15.30212404,"ECCENTRICITY":6.062e-5,"INCLINATION":53.1604,"RA_OF_ASC_NODE":30.8772,"ARG_OF_PERICENTER":107.008,"MEAN_ANOMALY":253.0987,"EPHEMERIS_TYPE":0,"CLASSIFICATION_TYPE":"U","NORAD_CAT_ID":62950,"ELEMENT_SET_NO":999,"REV_AT_EPOCH":3237,"BSTAR":0.0011217613,"MEAN_MOTION_DOT":0.00033025,"MEAN_MOTION_DDOT":0},{"OBJECT_NAME":"STARLINK-32875","OBJECT_ID":"2025-029D","EPOCH":"2025-09-01T13:38:01.331808","MEAN_MOTION":15.30189156,"ECCENTRICITY":0.00013126,"INCLINATION":53.1597,"RA_OF_ASC_NODE":28.6832,"ARG_OF_PERICENTER":76.8769,"MEAN_ANOMALY":283.2378,"EPHEMERIS_TYPE":0,"CLASSIFICATION_TYPE":"U","NORAD_CAT_ID":62951,"ELEMENT_SET_NO":999,"REV_AT_EPOCH":3240,"BSTAR":0.0017280373,"MEAN_MOTION_DOT":0.00051156,"MEAN_MOTION_DDOT":0},{"OBJECT_NAME":"STARLINK-32865","OBJECT_ID":"2025-029E","EPOCH":"2025-09-01T13:44:51.011232","MEAN_MOTION":15.30231843,"ECCENTRICITY":0.00012303,"INCLINATION":53.1598,"RA_OF_ASC_NODE":30.8381,"ARG_OF_PERICENTER":82.7487,"MEAN_ANOMALY":277.3653,"EPHEMERIS_TYPE":0,"CLASSIFICATION_TYPE":"U","NORAD_CAT_ID":62952,"ELEMENT_SET_NO":999,"REV_AT_EPOCH":3237,"BSTAR":0.0020558653,"MEAN_MOTION_DOT":0.00061092,"MEAN_MOTION_DDOT":0},{"OBJECT_NAME":"STARLINK-32884","OBJECT_ID":"2025-029F","EPOCH":"2025-09-01T13:33:28.922976","MEAN_MOTION":15.30249501,"ECCENTRICITY":0.00013588,"INCLINATION":53.1584,"RA_OF_ASC_NODE":28.6609,"ARG_OF_PERICENTER":26.5741,"MEAN_ANOMALY":333.5329,"EPHEMERIS_TYPE":0,"CLASSIFICATION_TYPE":"U","NORAD_CAT_ID":62953,"ELEMENT_SET_NO":999,"REV_AT_EPOCH":3240,"BSTAR":0.0022356545,"MEAN_MOTION_DOT":0.00066552,"MEAN_MOTION_DDOT":0}]
